GLOBALSTAR M035         
1 25851U 99037A   24337.72761074 -.00000100  00000+0 -13860-2 0  9994
2 25851  51.9914 133.0868 0014035  29.3928 344.0377 11.04535452 74556
GLOBALSTAR M032         
1 25852U 99037B   24337.28384674 -.00000095  00000+0 -91689-3 0  9992
2 25852  51.9976 332.8581 0010546 197.4017 162.6422 11.19054770112749
GLOBALSTAR M051         
1 25853U 99037C   24337.85103303 -.00000076  00000+0 -91316-4 0  9991
2 25853  51.9755 154.5276 0001055 154.0393 206.0471 11.42199560109955
GLOBALSTAR M030         
1 25854U 99037D   24337.73645397 -.00000044  00000+0  65340-3 0  9994
2 25854  51.9899 333.4016 0003942  55.6444 304.4746 11.55100684127349
GLOBALSTAR M048         
1 25872U 99041A   24337.60162066 -.00000082  00000+0 -32733-3 0  9995
2 25872  51.9370  82.5603 0013499 200.3295 172.7308 11.33852059102684
GLOBALSTAR M026         
1 25873U 99041B   24337.47957345 -.00000162  00000+0 -35942-2 0  9996
2 25873  52.0009 253.6686 0001133 325.4800 207.2149 11.06825659126703
GLOBALSTAR M043         
1 25874U 99041C   24337.83592832 -.00000045  00000+0  67897-3 0  9997
2 25874  51.9368 181.8275 0012847 342.0769  30.5288 11.25688420100762
GLOBALSTAR M028         
1 25875U 99041D   24337.53881931 -.00000067  00000+0  21844-3 0  9992
2 25875  51.9640  59.4307 0063041   4.8496 355.2964 12.50570973165574
